CCSDS_OMM_VERS = 2.0
CREATION_DATE  = 
ORIGINATOR     = 

OBJECT_NAME    = STARLINK-36730
OBJECT_ID      = 2026-034AA
CENTER_NAME    = EARTH
REF_FRAME      = TEME
TIME_SYSTEM    = UTC
MEAN_ELEMENT_THEORY = SGP/SGP4

EPOCH          = 2026-03-05T04:00:01.999584
MEAN_MOTION    = 15.80848378
ECCENTRICITY   = .0000871
INCLINATION    = 53.1592
RA_OF_ASC_NODE = 233.8102
ARG_OF_PERICENTER = 79.8587
MEAN_ANOMALY   = 307.9493

EPHEMERIS_TYPE = 0
CLASSIFICATION_TYPE = U
NORAD_CAT_ID   = 67874
ELEMENT_SET_NO = 999
REV_AT_EPOCH   = 313
BSTAR          = .26175E-3
MEAN_MOTION_DOT = .5121E-3
MEAN_MOTION_DDOT = 0

CCSDS_OMM_VERS = 2.0
CREATION_DATE  = 
ORIGINATOR     = 

OBJECT_NAME    = STARLINK-36727
OBJECT_ID      = 2026-034AB
CENTER_NAME    = EARTH
REF_FRAME      = TEME
TIME_SYSTEM    = UTC
MEAN_ELEMENT_THEORY = SGP/SGP4

EPOCH          = 2026-03-05T04:00:01.999584
MEAN_MOTION    = 15.80867297
ECCENTRICITY   = .0000529
INCLINATION    = 53.1593
RA_OF_ASC_NODE = 233.8009
ARG_OF_PERICENTER = 73.3130
MEAN_ANOMALY   = 318.7604

EPHEMERIS_TYPE = 0
CLASSIFICATION_TYPE = U
NORAD_CAT_ID   = 67875
ELEMENT_SET_NO = 999
REV_AT_EPOCH   = 313
BSTAR          = .66227E-4
MEAN_MOTION_DOT = .12388E-3
MEAN_MOTION_DDOT = 0

CCSDS_OMM_VERS = 2.0
CREATION_DATE  = 
ORIGINATOR     = 

OBJECT_NAME    = STARLINK-36743
OBJECT_ID      = 2026-034AC
CENTER_NAME    = EARTH
REF_FRAME      = TEME
TIME_SYSTEM    = UTC
MEAN_ELEMENT_THEORY = SGP/SGP4

EPOCH          = 2026-03-05T04:00:01.999584
MEAN_MOTION    = 15.80877964
ECCENTRICITY   = .0001092
INCLINATION    = 53.1596
RA_OF_ASC_NODE = 233.7916
ARG_OF_PERICENTER = 155.4220
MEAN_ANOMALY   = 240.9187

EPHEMERIS_TYPE = 0
CLASSIFICATION_TYPE = U
NORAD_CAT_ID   = 67876
ELEMENT_SET_NO = 999
REV_AT_EPOCH   = 313
BSTAR          = .3163E-4
MEAN_MOTION_DOT = .5549E-4
MEAN_MOTION_DDOT = 0

CCSDS_OMM_VERS = 2.0
CREATION_DATE  = 
ORIGINATOR     = 

OBJECT_NAME    = STARLINK-36784
OBJECT_ID      = 2026-034AD
CENTER_NAME    = EARTH
REF_FRAME      = TEME
TIME_SYSTEM    = UTC
MEAN_ELEMENT_THEORY = SGP/SGP4

EPOCH          = 2026-03-05T04:00:01.999584
MEAN_MOTION    = 15.80851926
ECCENTRICITY   = .0000254
INCLINATION    = 53.1594
RA_OF_ASC_NODE = 233.7829
ARG_OF_PERICENTER = 49.6681
MEAN_ANOMALY   = 350.9537

EPHEMERIS_TYPE = 0
CLASSIFICATION_TYPE = U
NORAD_CAT_ID   = 67877
ELEMENT_SET_NO = 999
REV_AT_EPOCH   = 313
BSTAR          = .28641E-3
MEAN_MOTION_DOT = .56143E-3
MEAN_MOTION_DDOT = 0

CCSDS_OMM_VERS = 2.0
CREATION_DATE  = 
ORIGINATOR     = 

OBJECT_NAME    = STARLINK-36689
OBJECT_ID      = 2026-034AE
CENTER_NAME    = EARTH
REF_FRAME      = TEME
TIME_SYSTEM    = UTC
MEAN_ELEMENT_THEORY = SGP/SGP4

EPOCH          = 2026-03-05T04:00:01.999584
MEAN_MOTION    = 15.80827531
ECCENTRICITY   = .0000976
INCLINATION    = 53.1593
RA_OF_ASC_NODE = 233.7746
ARG_OF_PERICENTER = 98.7492
MEAN_ANOMALY   = 306.1455

EPHEMERIS_TYPE = 0
CLASSIFICATION_TYPE = U
NORAD_CAT_ID   = 67878
ELEMENT_SET_NO = 999
REV_AT_EPOCH   = 313
BSTAR          = .5011E-3
MEAN_MOTION_DOT = .99134E-3
MEAN_MOTION_DDOT = 0

CCSDS_OMM_VERS = 2.0
CREATION_DATE  = 
ORIGINATOR     = 

OBJECT_NAME    = STARLINK-36818
OBJECT_ID      = 2026-035A
CENTER_NAME    = EARTH
REF_FRAME      = TEME
TIME_SYSTEM    = UTC
MEAN_ELEMENT_THEORY = SGP/SGP4

EPOCH          = 2026-03-05T04:00:01.999584
MEAN_MOTION    = 15.97287070
ECCENTRICITY   = .0001331
INCLINATION    = 97.2769
RA_OF_ASC_NODE = 356.1511
ARG_OF_PERICENTER = 116.4427
MEAN_ANOMALY   = 72.0344

EPHEMERIS_TYPE = 0
CLASSIFICATION_TYPE = U
NORAD_CAT_ID   = 67879
ELEMENT_SET_NO = 999
REV_AT_EPOCH   = 302
BSTAR          = -.20734E-2
MEAN_MOTION_DOT = -.901434E-2
MEAN_MOTION_DDOT = .26235E-3

CCSDS_OMM_VERS = 2.0
CREATION_DATE  = 
ORIGINATOR     = 

OBJECT_NAME    = STARLINK-36821
OBJECT_ID      = 2026-035B
CENTER_NAME    = EARTH
REF_FRAME      = TEME
TIME_SYSTEM    = UTC
MEAN_ELEMENT_THEORY = SGP/SGP4

EPOCH          = 2026-03-05T04:00:01.999584
MEAN_MOTION    = 15.97413733
ECCENTRICITY   = .0001169
INCLINATION    = 97.2765
RA_OF_ASC_NODE = 356.1541
ARG_OF_PERICENTER = 118.9138
MEAN_ANOMALY   = 76.3545

EPHEMERIS_TYPE = 0
CLASSIFICATION_TYPE = U
NORAD_CAT_ID   = 67880
ELEMENT_SET_NO = 999
REV_AT_EPOCH   = 302
BSTAR          = -.2048E-2
MEAN_MOTION_DOT = -.896599E-2
MEAN_MOTION_DDOT = .2601E-3

CCSDS_OMM_VERS = 2.0
CREATION_DATE  = 
ORIGINATOR     = 

OBJECT_NAME    = STARLINK-36808
OBJECT_ID      = 2026-035C
CENTER_NAME    = EARTH
REF_FRAME      = TEME
TIME_SYSTEM    = UTC
MEAN_ELEMENT_THEORY = SGP/SGP4

EPOCH          = 2026-03-05T04:00:01.999584
MEAN_MOTION    = 15.97383343
ECCENTRICITY   = .0001335
INCLINATION    = 97.2766
RA_OF_ASC_NODE = 356.1521
ARG_OF_PERICENTER = 111.0614
MEAN_ANOMALY   = 79.9821

EPHEMERIS_TYPE = 0
CLASSIFICATION_TYPE = U
NORAD_CAT_ID   = 67881
ELEMENT_SET_NO = 999
REV_AT_EPOCH   = 302
BSTAR          = -.21245E-2
MEAN_MOTION_DOT = -.928343E-2
MEAN_MOTION_DDOT = .27738E-3

CCSDS_OMM_VERS = 2.0
CREATION_DATE  = 
ORIGINATOR     = 

OBJECT_NAME    = STARLINK-36817
OBJECT_ID      = 2026-035D
CENTER_NAME    = EARTH
REF_FRAME      = TEME
TIME_SYSTEM    = UTC
MEAN_ELEMENT_THEORY = SGP/SGP4

EPOCH          = 2026-03-05T04:00:01.999584
MEAN_MOTION    = 15.97624785
ECCENTRICITY   = .000114
INCLINATION    = 97.2756
RA_OF_ASC_NODE = 356.1571
ARG_OF_PERICENTER = 110.6718
MEAN_ANOMALY   = 92.7004

EPHEMERIS_TYPE = 0
CLASSIFICATION_TYPE = U
NORAD_CAT_ID   = 67882
ELEMENT_SET_NO = 999
REV_AT_EPOCH   = 302
BSTAR          = -.21309E-2
MEAN_MOTION_DOT = -.943409E-2
MEAN_MOTION_DDOT = .28655E-3

CCSDS_OMM_VERS = 2.0
CREATION_DATE  = 
ORIGINATOR     = 

OBJECT_NAME    = STARLINK-36856
OBJECT_ID      = 2026-035E
CENTER_NAME    = EARTH
REF_FRAME      = TEME
TIME_SYSTEM    = UTC
MEAN_ELEMENT_THEORY = SGP/SGP4

EPOCH          = 2026-03-05T04:00:01.999584
MEAN_MOTION    = 15.97545561
ECCENTRICITY   = .0001143
INCLINATION    = 97.2762
RA_OF_ASC_NODE = 356.1557
ARG_OF_PERICENTER = 100.3586
MEAN_ANOMALY   = 99.2032

EPHEMERIS_TYPE = 0
CLASSIFICATION_TYPE = U
NORAD_CAT_ID   = 67883
ELEMENT_SET_NO = 999
REV_AT_EPOCH   = 302
BSTAR          = -.21347E-2
MEAN_MOTION_DOT = -.940997E-2
MEAN_MOTION_DDOT = .28495E-3

CCSDS_OMM_VERS = 2.0
CREATION_DATE  = 
ORIGINATOR     = 

OBJECT_NAME    = STARLINK-36842
OBJECT_ID      = 2026-035F
CENTER_NAME    = EARTH
REF_FRAME      = TEME
TIME_SYSTEM    = UTC
MEAN_ELEMENT_THEORY = SGP/SGP4

EPOCH          = 2026-03-05T04:00:01.999584
MEAN_MOTION    = 15.97703720
ECCENTRICITY   = .0001258
INCLINATION    = 97.2757
RA_OF_ASC_NODE = 356.1587
ARG_OF_PERICENTER = 121.1821
MEAN_ANOMALY   = 85.7591

EPHEMERIS_TYPE = 0
CLASSIFICATION_TYPE = U
NORAD_CAT_ID   = 67884
ELEMENT_SET_NO = 999
REV_AT_EPOCH   = 302
BSTAR          = -.21102E-2
MEAN_MOTION_DOT = -.938358E-2
MEAN_MOTION_DDOT = .28395E-3

CCSDS_OMM_VERS = 2.0
CREATION_DATE  = 
ORIGINATOR     = 

OBJECT_NAME    = STARLINK-36826
OBJECT_ID      = 2026-035G
CENTER_NAME    = EARTH
REF_FRAME      = TEME
TIME_SYSTEM    = UTC
MEAN_ELEMENT_THEORY = SGP/SGP4

EPOCH          = 2026-03-05T04:00:01.999584
MEAN_MOTION    = 15.97764592
ECCENTRICITY   = .0001326
INCLINATION    = 97.2756
RA_OF_ASC_NODE = 356.1599
ARG_OF_PERICENTER = 121.5130
MEAN_ANOMALY   = 88.3210

EPHEMERIS_TYPE = 0
CLASSIFICATION_TYPE = U
NORAD_CAT_ID   = 67885
ELEMENT_SET_NO = 999
REV_AT_EPOCH   = 302
BSTAR          = -.19089E-2
MEAN_MOTION_DOT = -.852236E-2
MEAN_MOTION_DDOT = .23759E-3

